start=new Date('2023-03-08T00:00:00.000Z').valueOf();
sats=[{"SITE":"AFETR","SEMIMAJOR_AXIS":"6917.875","INCLINATION":"53.2197","DECAY_DATE":null,"MEAN_ANOMALY":"335.8431","CLASSIFICATION_TYPE":"U","REF_FRAME":"TEME","PERIAPSIS":"537.642","COUNTRY_CODE":"US","BSTAR":"0.00003265600000","TLE_LINE2":"2 53414  53.2197   2.5998 0003032  24.2704 335.8431 15.08841767 32904","EPOCH":"2023-03-07T19:57:59.128704","LAUNCH_DATE":"2022-08-10","RA_OF_ASC_NODE":"2.5998","OBJECT_TYPE":"PAYLOAD","MEAN_MOTION":"15.08841767","TIME_SYSTEM":"UTC","PERIOD":"95.437","OBJECT_ID":"2022-097AC","NORAD_CAT_ID":"53414","ECCENTRICITY":"0.00030320","TLE_LINE1":"1 53414U 22097AC  23066.83193436  .00000231  00000-0  32656-4 0  9993","OBJECT_NAME":"STARLINK-4304","MEAN_ELEMENT_THEORY":"SGP4","EPHEMERIS_TYPE":"0","RCS_SIZE":"LARGE","MEAN_MOTION_DOT":"0.00000231","ARG_OF_PERICENTER":"24.2704","ELEMENT_SET_NO":"999","FILE":"3854072","APOAPSIS":"541.837","GP_ID":"227675843","REV_AT_EPOCH":"3290","MEAN_MOTION_DDOT":"0.0000000000000","CENTER_NAME":"EARTH"},{"REV_AT_EPOCH":"3279","MEAN_MOTION_DDOT":"0.0000000000000","CENTER_NAME":"EARTH","FILE":"3854072","APOAPSIS":"540.491","GP_ID":"227675591","ELEMENT_SET_NO":"999","MEAN_MOTION_DOT":"0.00011936","ARG_OF_PERICENTER":"75.7703","MEAN_ELEMENT_THEORY":"SGP4","RCS_SIZE":"LARGE","EPHEMERIS_TYPE":"0","OBJECT_NAME":"STARLINK-4479","TLE_LINE1":"1 53415U 22097AD  23066.23212147  .00011936  00000-0  76666-3 0  9991","ECCENTRICITY":"0.00010970","OBJECT_ID":"2022-097AD","PERIOD":"95.437","NORAD_CAT_ID":"53415","TIME_SYSTEM":"UTC","MEAN_MOTION":"15.08844211","LAUNCH_DATE":"2022-08-10","EPOCH":"2023-03-07T05:34:15.295008","OBJECT_TYPE":"PAYLOAD","RA_OF_ASC_NODE":"5.2895","COUNTRY_CODE":"US","BSTAR":"0.00076666000000","PERIAPSIS":"538.974","TLE_LINE2":"2 53415  53.2165   5.2895 0001097  75.7703 284.3411 15.08844211 32795","CLASSIFICATION_TYPE":"U","MEAN_ANOMALY":"284.3411","REF_FRAME":"TEME","DECAY_DATE":null,"SEMIMAJOR_AXIS":"6917.868","INCLINATION":"53.2165","SITE":"AFETR"},{"ELEMENT_SET_NO":"999","GP_ID":"227676829","FILE":"3854072","APOAPSIS":"540.730","MEAN_MOTION_DDOT":"0.0000000000000","CENTER_NAME":"EARTH","REV_AT_EPOCH":"3288","NORAD_CAT_ID":"53416","PERIOD":"95.439","OBJECT_ID":"2022-097AE","OBJECT_NAME":"STARLINK-4480","TLE_LINE1":"1 53416U 22097AE  23066.81356037  .00056160  00000-0  35204-2 0  9993","ECCENTRICITY":"0.00013490","RCS_SIZE":"LARGE","EPHEMERIS_TYPE":"0","MEAN_ELEMENT_THEORY":"SGP4","ARG_OF_PERICENTER":"71.8435","MEAN_MOTION_DOT":"0.00056160","REF_FRAME":"TEME","CLASSIFICATION_TYPE":"U","MEAN_ANOMALY":"288.2704","TLE_LINE2":"2 53416  53.2178   2.6317 0001349  71.8435 288.2704 15.08823233 32888","COUNTRY_CODE":"US","BSTAR":"0.00352040000000","PERIAPSIS":"538.863","OBJECT_TYPE":"PAYLOAD","RA_OF_ASC_NODE":"2.6317","EPOCH":"2023-03-07T19:31:31.615968","LAUNCH_DATE":"2022-08-10","MEAN_MOTION":"15.08823233","TIME_SYSTEM":"UTC","SITE":"AFETR","INCLINATION":"53.2178","SEMIMAJOR_AXIS":"6917.932","DECAY_DATE":null},{"ELEMENT_SET_NO":"999","GP_ID":"227674595","APOAPSIS":"540.739","FILE":"3854072","MEAN_MOTION_DDOT":"0.0000000000000","CENTER_NAME":"EARTH","REV_AT_EPOCH":"3288","NORAD_CAT_ID":"53417","PERIOD":"95.438","OBJECT_ID":"2022-097AF","OBJECT_NAME":"STARLINK-4484","TLE_LINE1":"1 53417U 22097AF  23066.82460202  .00019424  00000-0  12354-2 0  9998","ECCENTRICITY":"0.00014020","RCS_SIZE":"LARGE","EPHEMERIS_TYPE":"0","MEAN_ELEMENT_THEORY":"SGP4","ARG_OF_PERICENTER":"71.8432","MEAN_MOTION_DOT":"0.00019424","REF_FRAME":"TEME","CLASSIFICATION_TYPE":"U","MEAN_ANOMALY":"288.2713","TLE_LINE2":"2 53417  53.2175   2.6292 0001402  71.8432 288.2713 15.08832226 32887","COUNTRY_CODE":"US","BSTAR":"0.00123540000000","PERIAPSIS":"538.799","OBJECT_TYPE":"PAYLOAD","RA_OF_ASC_NODE":"2.6292","LAUNCH_DATE":"2022-08-10","EPOCH":"2023-03-07T19:47:25.614528","TIME_SYSTEM":"UTC","MEAN_MOTION":"15.08832226","SITE":"AFETR","INCLINATION":"53.2175","SEMIMAJOR_AXIS":"6917.904","DECAY_DATE":null},{"DECAY_DATE":null,"INCLINATION":"53.2162","SEMIMAJOR_AXIS":"6917.863","SITE":"AFETR","TIME_SYSTEM":"UTC","MEAN_MOTION":"15.08845672","RA_OF_ASC_NODE":"355.3509","OBJECT_TYPE":"PAYLOAD","EPOCH":"2023-03-07T02:56:31.674048","LAUNCH_DATE":"2022-08-10","TLE_LINE2":"2 53418  53.2162 355.3509 0001533  67.1491 292.9663 15.08845672 32954","PERIAPSIS":"538.668","COUNTRY_CODE":"US","BSTAR":"0.00077304000000","REF_FRAME":"TEME","MEAN_ANOMALY":"292.9663","CLASSIFICATION_TYPE":"U","ARG_OF_PERICENTER":"67.1491","MEAN_MOTION_DOT":"0.00012038","EPHEMERIS_TYPE":"0","RCS_SIZE":"LARGE","MEAN_ELEMENT_THEORY":"SGP4","ECCENTRICITY":"0.00015330","OBJECT_NAME":"STARLINK-4481","TLE_LINE1":"1 53418U 22097AG  23066.12258882  .00012038  00000-0  77304-3 0  9992","NORAD_CAT_ID":"53418","OBJECT_ID":"2022-097AG","PERIOD":"95.437","CENTER_NAME":"EARTH","MEAN_MOTION_DDOT":"0.0000000000000","REV_AT_EPOCH":"3295","GP_ID":"227675345","APOAPSIS":"540.789","FILE":"3854072","ELEMENT_SET_NO":"999"},{"OBJECT_TYPE":"PAYLOAD","RA_OF_ASC_NODE":"5.3253","EPOCH":"2023-03-07T05:23:40.475328","LAUNCH_DATE":"2022-08-10","TIME_SYSTEM":"UTC","MEAN_MOTION":"15.08821628","REF_FRAME":"TEME","CLASSIFICATION_TYPE":"U","MEAN_ANOMALY":"285.3552","TLE_LINE2":"2 53419  53.2174   5.3253 0001394  74.7594 285.3552 15.08821628 32799","BSTAR":"0.00180130000000","COUNTRY_CODE":"US","PERIAPSIS":"538.837","DECAY_DATE":null,"SITE":"AFETR","INCLINATION":"53.2174","SEMIMAJOR_AXIS":"6917.937","CENTER_NAME":"EARTH","MEAN_MOTION_DDOT":"0.0000000000000","REV_AT_EPOCH":"3279","ELEMENT_SET_NO":"999","GP_ID":"227676090","FILE":"3854072","APOAPSIS":"540.766","RCS_SIZE":"LARGE","EPHEMERIS_TYPE":"0","MEAN_ELEMENT_THEORY":"SGP4","ARG_OF_PERICENTER":"74.7594","MEAN_MOTION_DOT":"0.00028482","NORAD_CAT_ID":"53419","PERIOD":"95.439","OBJECT_ID":"2022-097AH","OBJECT_NAME":"STARLINK-4476","TLE_LINE1":"1 53419U 22097AH  23066.22477402  .00028482  00000-0  18013-2 0  9996","ECCENTRICITY":"0.00013940"},{"DECAY_DATE":null,"INCLINATION":"53.2151","SEMIMAJOR_AXIS":"6917.828","SITE":"AFETR","MEAN_MOTION":"15.08857222","TIME_SYSTEM":"UTC","RA_OF_ASC_NODE":"2.7003","OBJECT_TYPE":"PAYLOAD","LAUNCH_DATE":"2022-08-10","EPOCH":"2023-03-07T19:26:14.019072","TLE_LINE2":"2 53420  53.2151   2.7003 0001589  77.0280 283.0889 15.08857222 32881","PERIAPSIS":"538.594","COUNTRY_CODE":"US","BSTAR":"0.00186480000000","REF_FRAME":"TEME","MEAN_ANOMALY":"283.0889","CLASSIFICATION_TYPE":"U","ARG_OF_PERICENTER":"77.0280","MEAN_MOTION_DOT":"0.00029529","EPHEMERIS_TYPE":"0","RCS_SIZE":"LARGE","MEAN_ELEMENT_THEORY":"SGP4","ECCENTRICITY":"0.00015890","OBJECT_NAME":"STARLINK-4552","TLE_LINE1":"1 53420U 22097AJ  23066.80988448  .00029529  00000-0  18648-2 0  9996","NORAD_CAT_ID":"53420","OBJECT_ID":"2022-097AJ","PERIOD":"95.436","MEAN_MOTION_DDOT":"0.0000000000000","CENTER_NAME":"EARTH","REV_AT_EPOCH":"3288","GP_ID":"227676330","FILE":"3854072","APOAPSIS":"540.792","ELEMENT_SET_NO":"999"},{"ARG_OF_PERICENTER":"73.1543","MEAN_MOTION_DOT":"0.00025066","EPHEMERIS_TYPE":"0","RCS_SIZE":"LARGE","MEAN_ELEMENT_THEORY":"SGP4","ECCENTRICITY":"0.00013530","OBJECT_NAME":"STARLINK-4545","TLE_LINE1":"1 53421U 22097AK  23066.81724388  .00025066  00000-0  15868-2 0  9992","NORAD_CAT_ID":"53421","OBJECT_ID":"2022-097AK","PERIOD":"95.437","MEAN_MOTION_DDOT":"0.0000000000000","CENTER_NAME":"EARTH","REV_AT_EPOCH":"3288","GP_ID":"227676348","FILE":"3854072","APOAPSIS":"540.638","ELEMENT_SET_NO":"999","DECAY_DATE":null,"INCLINATION":"53.2170","SEMIMAJOR_AXIS":"6917.837","SITE":"AFETR","TIME_SYSTEM":"UTC","MEAN_MOTION":"15.08854127","RA_OF_ASC_NODE":"2.6665","OBJECT_TYPE":"PAYLOAD","LAUNCH_DATE":"2022-08-10","EPOCH":"2023-03-07T19:36:49.871232","TLE_LINE2":"2 53421  53.2170   2.6665 0001353  73.1543 286.9598 15.08854127 32884","PERIAPSIS":"538.766","COUNTRY_CODE":"US","BSTAR":"0.00158680000000","REF_FRAME":"TEME","MEAN_ANOMALY":"286.9598","CLASSIFICATION_TYPE":"U"},{"FILE":"3854072","APOAPSIS":"540.306","GP_ID":"227675844","ELEMENT_SET_NO":"999","REV_AT_EPOCH":"3282","CENTER_NAME":"EARTH","MEAN_MOTION_DDOT":"0.0000000000000","ECCENTRICITY":"0.00008390","OBJECT_NAME":"STARLINK-4546","TLE_LINE1":"1 53422U 22097AL  23066.27259889  .00031693  00000-0  20001-2 0  9990","PERIOD":"95.437","OBJECT_ID":"2022-097AL","NORAD_CAT_ID":"53422","MEAN_MOTION_DOT":"0.00031693","ARG_OF_PERICENTER":"53.9833","MEAN_ELEMENT_THEORY":"SGP4","EPHEMERIS_TYPE":"0","RCS_SIZE":"LARGE","PERIAPSIS":"539.145","COUNTRY_CODE":"US","BSTAR":"0.00200010000000","TLE_LINE2":"2 53422  53.2157   5.1111 0000839  53.9833 306.1237 15.08846384 32825","MEAN_ANOMALY":"306.1237","CLASSIFICATION_TYPE":"U","REF_FRAME":"TEME","MEAN_MOTION":"15.08846384","TIME_SYSTEM":"UTC","LAUNCH_DATE":"2022-08-10","EPOCH":"2023-03-07T06:32:32.544096","RA_OF_ASC_NODE":"5.1111","OBJECT_TYPE":"PAYLOAD","SEMIMAJOR_AXIS":"6917.861","INCLINATION":"53.2157","SITE":"AFETR","DECAY_DATE":null},{"SEMIMAJOR_AXIS":"6917.844","INCLINATION":"53.2171","SITE":"AFETR","DECAY_DATE":null,"PERIAPSIS":"538.525","BSTAR":"0.00166390000000","COUNTRY_CODE":"US","TLE_LINE2":"2 53423  53.2171   2.6851 0001712  78.1189 281.9995 15.08851767 32887","MEAN_ANOMALY":"281.9995","CLASSIFICATION_TYPE":"U","REF_FRAME":"TEME","TIME_SYSTEM":"UTC","MEAN_MOTION":"15.08851767","EPOCH":"2023-03-07T19:32:54.844224","LAUNCH_DATE":"2022-08-10","RA_OF_ASC_NODE":"2.6851","OBJECT_TYPE":"PAYLOAD","ECCENTRICITY":"0.00017120","TLE_LINE1":"1 53423U 22097AM  23066.81452366  .00026301  00000-0  16639-2 0  9998","OBJECT_NAME":"STARLINK-4539","PERIOD":"95.437","OBJECT_ID":"2022-097AM","NORAD_CAT_ID":"53423","MEAN_MOTION_DOT":"0.00026301","ARG_OF_PERICENTER":"78.1189","MEAN_ELEMENT_THEORY":"SGP4","EPHEMERIS_TYPE":"0","RCS_SIZE":"LARGE","FILE":"3854072","APOAPSIS":"540.894","GP_ID":"227675592","ELEMENT_SET_NO":"999","REV_AT_EPOCH":"3288","CENTER_NAME":"EARTH","MEAN_MOTION_DDOT":"0.0000000000000"}];
